QIANFAN-49              
1 62250U 24232P   26019.98338996  .00000032  00000+0  30392-4 0  9996
2 62250  88.9999  37.3729 0016153  85.6166 274.6831 13.50983704 73009
QIANFAN-50              
1 62251U 24232Q   26020.00813639  .00000041  00000+0  44341-4 0  9993
2 62251  89.0005  37.3807 0017820  86.6419 273.6770 13.50980575 73038
QIANFAN-51              
1 62252U 24232R   26019.99163877  .00000038  00000+0  39694-4 0  9993
2 62252  88.9998  37.3739 0015312  90.0516 270.2390 13.50983142 73026
QIANFAN-52              
1 62253U 24232S   26019.94643550  .00000027  00000+0  22636-4 0  9996
2 62253  88.9995  37.2505 0017296  83.2427 277.0692 13.50981124 73109
QIANFAN-53              
1 62254U 24232T   26019.99984080  .00000048  00000+0  54930-4 0  9993
2 62254  89.0002  37.3525 0016181  84.1654 276.1341 13.50983846 73078
QIANFAN-54              
1 62255U 24232U   26019.96690137  .00000048  00000+0  56205-4 0  9995
2 62255  88.9993  37.0308 0003907 108.9804 251.1771 13.50984320104574
QIANFAN-55              
1 62785U 25016A   26019.91878846  .00000193  00000+0  28011-3 0  9998
2 62785  88.9763  99.2712 0016166 232.8026 127.1651 13.50988573 52340
QIANFAN-56              
1 62786U 25016B   26019.93523653  .00000183  00000+0  26418-3 0  9992
2 62786  88.9736  99.0957 0014758 234.8199 125.1570 13.50990764 52396
